[{"OBJECT_NAME":"STARLINK-4446","OBJECT_ID":"2022-099AS","EPOCH":"2026-03-10T00:00:02.999808","MEAN_MOTION":15.39988094,"ECCENTRICITY":0.00015463,"INCLINATION":97.6064,"RA_OF_ASC_NODE":192.0252,"ARG_OF_PERICENTER":73.6068,"MEAN_ANOMALY":208.021,"EPHEMERIS_TYPE":0,"CLASSIFICATION_TYPE":"U","NORAD_CAT_ID":53505,"ELEMENT_SET_NO":999,"REV_AT_EPOCH":561,"BSTAR":0.0069528789,"MEAN_MOTION_DOT":0.00287489,"MEAN_MOTION_DDOT":0},{"OBJECT_NAME":"GLOBAL-31","OBJECT_ID":"2025-033B","EPOCH":"2026-03-09T21:37:08.338080","MEAN_MOTION":15.38684855,"ECCENTRICITY":0.0009261,"INCLINATION":59.0009,"RA_OF_ASC_NODE":357.4522,"ARG_OF_PERICENTER":37.0893,"MEAN_ANOMALY":323.0822,"EPHEMERIS_TYPE":0,"CLASSIFICATION_TYPE":"U","NORAD_CAT_ID":63027,"ELEMENT_SET_NO":999,"REV_AT_EPOCH":5904,"BSTAR":0.00050601381,"MEAN_MOTION_DOT":0.00019268,"MEAN_MOTION_DDOT":0}]
